SENTINEL-6              
1 46984U 20086A   23334.82568415 -.00000039  00000+0  93911-4 0  9990
2 46984  66.0415 265.3431 0007845 269.6626  90.3491 12.80928244141428
